[{"OBJECT_NAME":"OBJECT H","OBJECT_ID":"2024-092H","EPOCH":"2026-03-09T22:10:57.432576","MEAN_MOTION":14.31801309,"ECCENTRICITY":0.00131217,"INCLINATION":98.6549,"RA_OF_ASC_NODE":188.1402,"ARG_OF_PERICENTER":138.5744,"MEAN_ANOMALY":221.6437,"EPHEMERIS_TYPE":0,"CLASSIFICATION_TYPE":"U","NORAD_CAT_ID":59780,"ELEMENT_SET_NO":999,"REV_AT_EPOCH":9469,"BSTAR":0.00013575326,"MEAN_MOTION_DOT":3.19e-6,"MEAN_MOTION_DDOT":0},{"OBJECT_NAME":"FENGYUN 1C DEB","OBJECT_ID":"1999-025RV","EPOCH":"2026-03-09T17:36:22.242528","MEAN_MOTION":14.30025515,"ECCENTRICITY":0.00221545,"INCLINATION":99.3871,"RA_OF_ASC_NODE":151.5362,"ARG_OF_PERICENTER":100.8488,"MEAN_ANOMALY":30.3163,"EPHEMERIS_TYPE":0,"CLASSIFICATION_TYPE":"U","NORAD_CAT_ID":30116,"ELEMENT_SET_NO":999,"REV_AT_EPOCH":98752,"BSTAR":0.0016462356,"MEAN_MOTION_DOT":4.212e-5,"MEAN_MOTION_DDOT":0}]
